{"type": "FeatureCollection", "features": [ {"type": "Feature", "properties": {"norad_id": 34077, "name": "IRIDIUM 33 DEB", "group": "iridium-33-debris", "lat": 43.15325243814437, "lon": 49.837048091323375, "alt_km": 668.9956707513602, "timestamp": "2025-12-24T05:51:19.994098+00:00", "meta": {"OBJECT_NAME": "IRIDIUM 33 DEB", "OBJECT_ID": "1997-051CL", "EPOCH": "2025-12-23T22:00:51.280416", "MEAN_MOTION": 14.64965419, "ECCENTRICITY": 0.00088744, "INCLINATION": 86.3848, "RA_OF_ASC_NODE": 46.5829, "ARG_OF_PERICENTER": 2.9796, "MEAN_ANOMALY": 118.3257, "EPHEMERIS_TYPE": 0, "CLASSIFICATION_TYPE": "U", "NORAD_CAT_ID": 34077, "ELEMENT_SET_NO": 999, "REV_AT_EPOCH": 88496, "BSTAR": 0.0014596133, "MEAN_MOTION_DOT": 7.841e-05, "MEAN_MOTION_DDOT": 0}, "tle": {"line1": "1 34077U 97051CL  25357.91726019  .00007841  00000+0  14596-2 0  9996", "line2": "2 34077  86.3848  46.5829 0008874   2.9796 118.3257 14.64965419884965"}}, "geometry": {"type": "Point", "coordinates": [49.837048091323375, 43.15325243814437]}}, {"type": "Feature", "properties": {"norad_id": 34079, "name": "IRIDIUM 33 DEB", "group": "iridium-33-debris", "lat": 86.13095551827018, "lon": 113.92724267602472, "alt_km": 611.5616370027219, "timestamp": "2025-12-24T05:51:19.994109+00:00", "meta": {"OBJECT_NAME": "IRIDIUM 33 DEB", "OBJECT_ID": "1997-051CN", "EPOCH": "2025-12-23T18:55:00.035904", "MEAN_MOTION": 14.8380507, "ECCENTRICITY": 0.00042473, "INCLINATION": 86.3777, "RA_OF_ASC_NODE": 3.6362, "ARG_OF_PERICENTER": 327.1417, "MEAN_ANOMALY": 211.0944, "EPHEMERIS_TYPE": 0, "CLASSIFICATION_TYPE": "U", "NORAD_CAT_ID": 34079, "ELEMENT_SET_NO": 999, "REV_AT_EPOCH": 89141, "BSTAR": 0.0018223164, "MEAN_MOTION_DOT": 0.00015139, "MEAN_MOTION_DDOT": 0}, "tle": {"line1": "1 34079U 97051CN  25357.78819486  .00015139  00000+0  18223-2 0  9994", "line2": "2 34079  86.3777   3.6362 0004247 327.1417 211.0944 14.83805070891415"}}, "geometry": {"type": "Point", "coordinates": [113.92724267602472, 86.13095551827018]}}, {"type": "Feature", "properties": {"norad_id": 34088, "name": "IRIDIUM 33 DEB", "group": "iridium-33-debris", "lat": 27.8334445378169, "lon": -156.478391059168, "alt_km": 586.3710384603073, "timestamp": "2025-12-24T05:51:19.994120+00:00", "meta": {"OBJECT_NAME": "IRIDIUM 33 DEB", "OBJECT_ID": "1997-051CX", "EPOCH": "2025-12-23T01:54:32.264640", "MEAN_MOTION": 14.9182131, "ECCENTRICITY": 0.0006827, "INCLINATION": 86.3834, "RA_OF_ASC_NODE": 25.9708, "ARG_OF_PERICENTER": 144.041, "MEAN_ANOMALY": 238.2905, "EPHEMERIS_TYPE": 0, "CLASSIFICATION_TYPE": "U", "NORAD_CAT_ID": 34088, "ELEMENT_SET_NO": 999, "REV_AT_EPOCH": 88896, "BSTAR": 0.0024729077, "MEAN_MOTION_DOT": 0.00025042, "MEAN_MOTION_DDOT": 0}, "tle": {"line1": "1 34088U 97051CX  25357.07954010  .00025042  00000+0  24729-2 0  9991", "line2": "2 34088  86.3834  25.9708 0006827 144.0410 238.2905 14.91821310888963"}}, "geometry": {"type": "Point", "coordinates": [-156.478391059168, 27.8334445378169]}}, {"type": "Feature", "properties": {"norad_id": 34091, "name": "IRIDIUM 33 DEB", "group": "iridium-33-debris", "lat": -50.892206848154615, "lon": 57.0472031335269, "alt_km": 615.0079775243457, "timestamp": "2025-12-24T05:51:19.994131+00:00", "meta": {"OBJECT_NAME": "IRIDIUM 33 DEB", "OBJECT_ID": "1997-051DA", "EPOCH": "2025-12-23T21:59:09.722400", "MEAN_MOTION": 14.82607708, "ECCENTRICITY": 0.00341817, "INCLINATION": 86.3412, "RA_OF_ASC_NODE": 61.7123, "ARG_OF_PERICENTER": 253.0965, "MEAN_ANOMALY": 106.6509, "EPHEMERIS_TYPE": 0, "CLASSIFICATION_TYPE": "U", "NORAD_CAT_ID": 34091, "ELEMENT_SET_NO": 999, "REV_AT_EPOCH": 88032, "BSTAR": 0.0046837372, "MEAN_MOTION_DOT": 0.00038267, "MEAN_MOTION_DDOT": 0}, "tle": {"line1": "1 34091U 97051DA  25357.91608475  .00038267  00000+0  46837-2 0  9996", "line2": "2 34091  86.3412  61.7123 0034181 253.0965 106.6509 14.82607708880321"}}, "geometry": {"type": "Point", "coordinates": [57.0472031335269, -50.892206848154615]}}, {"type": "Feature", "properties": {"norad_id": 34097, "name": "IRIDIUM 33 DEB", "group": "iridium-33-debris", "lat": 37.073125398242006, "lon": -0.7926797475738188, "alt_km": 755.2072202301406, "timestamp": "2025-12-24T05:51:19.994141+00:00", "meta": {"OBJECT_NAME": "IRIDIUM 33 DEB", "OBJECT_ID": "1997-051DG", "EPOCH": "2025-12-23T22:59:23.367840", "MEAN_MOTION": 14.34863639, "ECCENTRICITY": 0.00814826, "INCLINATION": 86.2002, "RA_OF_ASC_NODE": 356.4553, "ARG_OF_PERICENTER": 325.4463, "MEAN_ANOMALY": 34.1451, "EPHEMERIS_TYPE": 0, "CLASSIFICATION_TYPE": "U", "NORAD_CAT_ID": 34097, "ELEMENT_SET_NO": 999, "REV_AT_EPOCH": 87280, "BSTAR": 0.0015469584, "MEAN_MOTION_DOT": 4.578e-05, "MEAN_MOTION_DDOT": 0}, "tle": {"line1": "1 34097U 97051DG  25357.95790935  .00004578  00000+0  15470-2 0  9996", "line2": "2 34097  86.2002 356.4553 0081482 325.4463  34.1451 14.34863639872804"}}, "geometry": {"type": "Point", "coordinates": [-0.7926797475738188, 37.073125398242006]}}, {"type": "Feature", "properties": {"norad_id": 34145, "name": "IRIDIUM 33 DEB", "group": "iridium-33-debris", "lat": -75.40362162575718, "lon": 162.13908798020705, "alt_km": 795.6285510592852, "timestamp": "2025-12-24T05:51:19.994152+00:00", "meta": {"OBJECT_NAME": "IRIDIUM 33 DEB", "OBJECT_ID": "1997-051DY", "EPOCH": "2025-12-23T05:21:52.043328", "MEAN_MOTION": 14.4235986, "ECCENTRICITY": 0.00556029, "INCLINATION": 86.2126, "RA_OF_ASC_NODE": 327.8569, "ARG_OF_PERICENTER": 60.5255, "MEAN_ANOMALY": 300.1476, "EPHEMERIS_TYPE": 0, "CLASSIFICATION_TYPE": "U", "NORAD_CAT_ID": 34145, "ELEMENT_SET_NO": 999, "REV_AT_EPOCH": 87789, "BSTAR": 0.0011656692, "MEAN_MOTION_DOT": 3.943e-05, "MEAN_MOTION_DDOT": 0}, "tle": {"line1": "1 34145U 97051DY  25357.22351902  .00003943  00000+0  11657-2 0  9995", "line2": "2 34145  86.2126 327.8569 0055602  60.5255 300.1476 14.42359860877897"}}, "geometry": {"type": "Point", "coordinates": [162.13908798020705, -75.40362162575718]}}, {"type": "Feature", "properties": {"norad_id": 34146, "name": "IRIDIUM 33 DEB", "group": "iridium-33-debris", "lat": 6.783860337072874, "lon": 164.27476843234612, "alt_km": 711.9435577113272, "timestamp": "2025-12-24T05:51:19.994163+00:00", "meta": {"OBJECT_NAME": "IRIDIUM 33 DEB", "OBJECT_ID": "1997-051DZ", "EPOCH": "2025-12-23T05:55:17.173920", "MEAN_MOTION": 14.49112641, "ECCENTRICITY": 0.00266651, "INCLINATION": 86.2838, "RA_OF_ASC_NODE": 345.1581, "ARG_OF_PERICENTER": 185.2875, "MEAN_ANOMALY": 188.6764, "EPHEMERIS_TYPE": 0, "CLASSIFICATION_TYPE": "U", "NORAD_CAT_ID": 34146, "ELEMENT_SET_NO": 999, "REV_AT_EPOCH": 88259, "BSTAR": 0.00083812732, "MEAN_MOTION_DOT": 3.219e-05, "MEAN_MOTION_DDOT": 0}, "tle": {"line1": "1 34146U 97051DZ  25357.24672655  .00003219  00000+0  83813-3 0  9999", "line2": "2 34146  86.2838 345.1581 0026665 185.2875 188.6764 14.49112641882598"}}, "geometry": {"type": "Point", "coordinates": [164.27476843234612, 6.783860337072874]}}, {"type": "Feature", "properties": {"norad_id": 34159, "name": "IRIDIUM 33 DEB", "group": "iridium-33-debris", "lat": 9.643919197152416, "lon": -137.28652190841754, "alt_km": 760.8555371063494, "timestamp": "2025-12-24T05:51:19.994173+00:00", "meta": {"OBJECT_NAME": "IRIDIUM 33 DEB", "OBJECT_ID": "1997-051EN", "EPOCH": "2025-12-23T20:43:00.833376", "MEAN_MOTION": 14.38519859, "ECCENTRICITY": 0.0026138, "INCLINATION": 86.3491, "RA_OF_ASC_NODE": 43.4975, "ARG_OF_PERICENTER": 248.4541, "MEAN_ANOMALY": 111.3871, "EPHEMERIS_TYPE": 0, "CLASSIFICATION_TYPE": "U", "NORAD_CAT_ID": 34159, "ELEMENT_SET_NO": 999, "REV_AT_EPOCH": 88119, "BSTAR": 0.00037587237, "MEAN_MOTION_DOT": 1.172e-05, "MEAN_MOTION_DDOT": 0}, "tle": {"line1": "1 34159U 97051EN  25357.86320409  .00001172  00000+0  37587-3 0  9991", "line2": "2 34159  86.3491  43.4975 0026138 248.4541 111.3871 14.38519859881197"}}, "geometry": {"type": "Point", "coordinates": [-137.28652190841754, 9.643919197152416]}}, {"type": "Feature", "properties": {"norad_id": 34350, "name": "IRIDIUM 33 DEB", "group": "iridium-33-debris", "lat": 55.330620123182996, "lon": 172.4863108791465, "alt_km": 720.2847601565891, "timestamp": "2025-12-24T05:51:19.994184+00:00", "meta": {"OBJECT_NAME": "IRIDIUM 33 DEB", "OBJECT_ID": "1997-051ES", "EPOCH": "2025-12-23T18:28:41.895840", "MEAN_MOTION": 14.45411309, "ECCENTRICITY": 0.00234827, "INCLINATION": 86.3273, "RA_OF_ASC_NODE": 358.0205, "ARG_OF_PERICENTER": 101.4247, "MEAN_ANOMALY": 77.7519, "EPHEMERIS_TYPE": 0, "CLASSIFICATION_TYPE": "U", "NORAD_CAT_ID": 34350, "ELEMENT_SET_NO": 999, "REV_AT_EPOCH": 88452, "BSTAR": 0.00030295247, "MEAN_MOTION_DOT": 1.089e-05, "MEAN_MOTION_DDOT": 0}, "tle": {"line1": "1 34350U 97051ES  25357.76992935  .00001089  00000+0  30295-3 0  9998", "line2": "2 34350  86.3273 358.0205 0023482 101.4247  77.7519 14.45411309884522"}}, "geometry": {"type": "Point", "coordinates": [172.4863108791465, 55.330620123182996]}}, {"type": "Feature", "properties": {"norad_id": 34366, "name": "IRIDIUM 33 DEB", "group": "iridium-33-debris", "lat": 85.8085881286172, "lon": 164.24646543927346, "alt_km": 688.6670887385035, "timestamp": "2025-12-24T05:51:19.994194+00:00", "meta": {"OBJECT_NAME": "IRIDIUM 33 DEB", "OBJECT_ID": "1997-051FJ", "EPOCH": "2025-12-22T10:47:10.372704", "MEAN_MOTION": 14.54128755, "ECCENTRICITY": 0.00230356, "INCLINATION": 86.3686, "RA_OF_ASC_NODE": 45.09, "ARG_OF_PERICENTER": 109.4758, "MEAN_ANOMALY": 314.4093, "EPHEMERIS_TYPE": 0, "CLASSIFICATION_TYPE": "U", "NORAD_CAT_ID": 34366, "ELEMENT_SET_NO": 999, "REV_AT_EPOCH": 88323, "BSTAR": 0.000894432, "MEAN_MOTION_DOT": 3.813e-05, "MEAN_MOTION_DDOT": 0}, "tle": {"line1": "1 34366U 97051FJ  25356.44942561  .00003813  00000+0  89443-3 0  9995", "line2": "2 34366  86.3686  45.0900 0023035 109.4758 314.4093 14.54128755883236"}}, "geometry": {"type": "Point", "coordinates": [164.24646543927346, 85.8085881286172]}}]}